COMMENT,ORIGINATOR,NORAD_CAT_ID,OBJECT_NAME,OBJECT_TYPE,CLASSIFICATION_TYPE,INTLDES,EPOCH,EPOCH_MICROSECONDS,MEAN_MOTION,ECCENTRICITY,INCLINATION,RA_OF_ASC_NODE,ARG_OF_PERICENTER,MEAN_ANOMALY,EPHEMERIS_TYPE,ELEMENT_SET_NO,REV_AT_EPOCH,BSTAR,MEAN_MOTION_DOT,MEAN_MOTION_DDOT,FILE,TLE_LINE0,TLE_LINE1,TLE_LINE2,OBJECT_ID,OBJECT_NUMBER,SEMIMAJOR_AXIS,PERIOD,APOGEE,PERIGEE,DECAYED
"GENERATED VIA SPACETRACK.ORG API","18 SPCS","47950","OBJECT U","TBA","U","21022U","2021-06-05 07:19:34","358592","15.05643362","0.0022273","97.5565","58.6835","359.0076","121.0008","0","999","1122","0.000018147","0.00000201","0","3049553","0 OBJECT U","1 47950U 21022U   21156.30525878  .00000201  00000-0  18147-4 0  9993","2 47950  97.5565  58.6835 0022273 359.0076 121.0008 15.05643362 11228","2021-022U","47950","6927.669","95.640","564.964","534.104","0"
"GENERATED VIA SPACETRACK.ORG API","18 SPCS","47950","OBJECT U","TBA","U","21022U","2021-06-05 10:30:19","273248","15.05643732","0.0022293","97.5566","58.8132","358.4536","119.1041","0","999","1124","0.000020025","0.00000228","0","3049760","0 OBJECT U","1 47950U 21022U   21156.43772307  .00000228  00000-0  20025-4 0  9995","2 47950  97.5566  58.8132 0022293 358.4536 119.1041 15.05643732 11245","2021-022U","47950","6927.667","95.640","564.976","534.089","0"
"GENERATED VIA SPACETRACK.ORG API","18 SPCS","47950","OBJECT U","TBA","U","21022U","2021-06-05 15:03:46","958976","15.05644404","0.0022383","97.5566","58.9993","357.7686","68.4833","0","999","1127","0.00002473","0.00000297","0","3049772","0 OBJECT U","1 47950U 21022U   21156.62762684  .00000297  00000-0  24730-4 0  9996","2 47950  97.5566  58.9993 0022383 357.7686  68.4833 15.05644404 11274","2021-022U","47950","6927.665","95.640","565.037","534.024","0"
"GENERATED VIA SPACETRACK.ORG API","18 SPCS","47950","OBJECT U","TBA","U","21022U","2021-06-05 16:44:19","19904","15.05644524","0.0022396","97.5566","59.0677","357.5131","86.9235","0","999","1128","0.000025335","0.00000305","0","3049969","0 OBJECT U","1 47950U 21022U   21156.69744236  .00000305  00000-0  25335-4 0  9998","2 47950  97.5566  59.0677 0022396 357.5131  86.9235 15.05644524 11287","2021-022U","47950","6927.665","95.640","565.045","534.015","0"
"GENERATED VIA SPACETRACK.ORG API","18 SPCS","47950","OBJECT U","TBA","U","21022U","2021-06-05 21:44:24","811872","15.05644751","0.0022394","97.5565","59.2719","356.7944","136.5296","0","999","1131","0.000025901","0.00000314","0","3050001","0 OBJECT U","1 47950U 21022U   21156.90584273  .00000314  00000-0  25901-4 0  9994","2 47950  97.5565  59.2719 0022394 356.7944 136.5296 15.05644751 11311","2021-022U","47950","6927.664","95.640","565.043","534.015","0"
"GENERATED VIA SPACETRACK.ORG API","18 SPCS","47950","OBJECT U","TBA","U","21022U","2021-06-06 05:49:35","275296","15.0564605","0.0022196","97.5567","59.602","355.7056","162.7305","0","999","1136","0.00003361","0.00000425","0","3050191","0 OBJECT U","1 47950U 21022U   21157.24276939  .00000425  00000-0  33610-4 0  9998","2 47950  97.5567  59.6020 0022196 355.7056 162.7305 15.05646050 11366","2021-022U","47950","6927.660","95.640","564.902","534.149","0"
"GENERATED VIA SPACETRACK.ORG API","18 SPCS","47950","OBJECT U","TBA","U","21022U","2021-06-06 12:16:46","55424","15.05647193","0.0022177","97.5568","59.8656","354.9508","179.9639","0","999","1140","0.00004061","0.00000527","0","3050440","0 OBJECT U","1 47950U 21022U   21157.51164416  .00000527  00000-0  40610-4 0  9995","2 47950  97.5568  59.8656 0022177 354.9508 179.9639 15.05647193 11400","2021-022U","47950","6927.657","95.640","564.885","534.158","0"
"GENERATED VIA SPACETRACK.ORG API","18 SPCS","47950","OBJECT U","TBA","U","21022U","2021-06-06 12:16:46","55424","15.05647193","0.0022177","97.5568","59.8656","354.9508","179.9639","0","999","1140","0.00004061","0.00000527","0","3050451","0 OBJECT U","1 47950U 21022U   21157.51164416  .00000527  00000-0  40610-4 0  9995","2 47950  97.5568  59.8656 0022177 354.9508 179.9639 15.05647193 11400","2021-022U","47950","6927.657","95.640","564.885","534.158","0"
"GENERATED VIA SPACETRACK.ORG API","18 SPCS","47950","OBJECT U","TBA","U","21022U","2021-06-06 18:16:42","291840","15.05648107","0.0022238","97.5569","60.1102","354.0237","94.8886","0","999","1144","0.000046118","0.00000607","0","3050661","0 OBJECT U","1 47950U 21022U   21157.76160060  .00000607  00000-0  46118-4 0  9991","2 47950  97.5569  60.1102 0022238 354.0237  94.8886 15.05648107 11449","2021-022U","47950","6927.654","95.640","564.925","534.113","0"
"GENERATED VIA SPACETRACK.ORG API","18 SPCS","47950","OBJECT U","TBA","U","21022U","2021-06-06 23:14:24","468864","15.0564897","0.0022115","97.5569","60.313","353.258","135.5445","0","999","1147","0.000051007","0.00000678","0","3050681","0 OBJECT U","1 47950U 21022U   21157.96833876  .00000678  00000-0  51007-4 0  9996","2 47950  97.5569  60.3130 0022115 353.2580 135.5445 15.05648970 11473","2021-022U","47950","6927.651","95.640","564.837","534.196","0"
"GENERATED VIA SPACETRACK.ORG API","18 SPCS","47950","OBJECT U","TBA","U","21022U","2021-06-07 02:21:12","313152","15.05649632","0.0022069","97.5569","60.4402","352.6784","118.8139","0","999","1149","0.000054696","0.00000731","0","3050864","0 OBJECT U","1 47950U 21022U   21158.09805918  .00000731  00000-0  54696-4 0  9994","2 47950  97.5569  60.4402 0022069 352.6784 118.8139 15.05649632 11495","2021-022U","47950","6927.649","95.640","564.803","534.226","0"
"GENERATED VIA SPACETRACK.ORG API","18 SPCS","47950","OBJECT U","TBA","U","21022U","2021-06-07 11:58:07","178016","15.05651231","0.0022025","97.5571","60.8323","351.3189","130.3932","0","999","1155","0.000062208","0.0000084","0","3051123","0 OBJECT U","1 47950U 21022U   21158.49869419  .00000840  00000-0  62208-4 0  9993","2 47950  97.5571  60.8323 0022025 351.3189 130.3932 15.05651231 11556","2021-022U","47950","6927.644","95.640","564.768","534.251","0"
"GENERATED VIA SPACETRACK.ORG API","18 SPCS","47950","OBJECT U","TBA","U","21022U","2021-06-07 15:00:41","936832","15.05652088","0.0022083","97.5571","60.9565","350.8478","97.6868","0","999","1157","0.000068122","0.00000926","0","3051140","0 OBJECT U","1 47950U 21022U   21158.62548538  .00000926  00000-0  68122-4 0  9990","2 47950  97.5571  60.9565 0022083 350.8478  97.6868 15.05652088 11570","2021-022U","47950","6927.642","95.640","564.805","534.208","0"
"GENERATED VIA SPACETRACK.ORG API","18 SPCS","47950","OBJECT U","TBA","U","21022U","2021-06-07 18:11:20","127840","15.05652775","0.0022092","97.5571","61.0863","350.3296","95.3374","0","999","1159","0.000071532","0.00000976","0","3051338","0 OBJECT U","1 47950U 21022U   21158.75787185  .00000976  00000-0  71532-4 0  9991","2 47950  97.5571  61.0863 0022092 350.3296  95.3374 15.05652775 11598","2021-022U","47950","6927.640","95.640","564.809","534.200","0"
"GENERATED VIA SPACETRACK.ORG API","18 SPCS","47950","OBJECT U","TBA","U","21022U","2021-06-07 23:09:46","128672","15.0565379","0.0021994","97.5571","61.2891","349.5394","138.7683","0","999","1162","0.000076706","0.00001051","0","3051373","0 OBJECT U","1 47950U 21022U   21158.96511723  .00001051  00000-0  76706-4 0  9990","2 47950  97.5571  61.2891 0021994 349.5394 138.7683 15.05653790 11627","2021-022U","47950","6927.637","95.640","564.738","534.265","0"
"GENERATED VIA SPACETRACK.ORG API","18 SPCS","47950","OBJECT U","TBA","U","21022U","2021-06-08 02:15:36","762336","15.05654182","0.0021998","97.5571","61.4153","349.0886","118.3215","0","999","1164","0.000077463","0.00001062","0","3051536","0 OBJECT U","1 47950U 21022U   21159.09417549  .00001062  00000-0  77463-4 0  9999","2 47950  97.5571  61.4153 0021998 349.0886 118.3215 15.05654182 11648","2021-022U","47950","6927.635","95.639","564.740","534.261","0"
"GENERATED VIA SPACETRACK.ORG API","18 SPCS","47950","OBJECT U","TBA","U","21022U","2021-06-08 11:53:25","52640","15.0565563","0.0021943","97.5575","61.8092","347.8768","133.107","0","999","1170","0.000081748","0.00001124","0","3051813","0 OBJECT U","1 47950U 21022U   21159.49542885  .00001124  00000-0  81748-4 0  9995","2 47950  97.5575  61.8092 0021943 347.8768 133.1070 15.05655630 11703","2021-022U","47950","6927.631","95.639","564.697","534.295","0"
"GENERATED VIA SPACETRACK.ORG API","18 SPCS","47950","OBJECT U","TBA","U","21022U","2021-06-08 14:55:50","492352","15.05656551","0.0021851","97.5576","61.9335","347.4203","99.8057","0","999","1172","0.00008701","0.000012","0","3051832","0 OBJECT U","1 47950U 21022U   21159.62211218  .00001200  00000-0  87010-4 0  9996","2 47950  97.5576  61.9335 0021851 347.4203  99.8057 15.05656551 11721","2021-022U","47950","6927.628","95.639","564.631","534.355","0"
"GENERATED VIA SPACETRACK.ORG API","18 SPCS","47950","OBJECT U","TBA","U","21022U","2021-06-08 19:32:43","395360","15.05657341","0.0021814","97.5576","62.1218","346.7134","62.0815","0","999","1175","0.00008993","0.00001243","0","3052031","0 OBJECT U","1 47950U 21022U   21159.81439115  .00001243  00000-0  89930-4 0  9995","2 47950  97.5576  62.1218 0021814 346.7134  62.0815 15.05657341 11753","2021-022U","47950","6927.626","95.639","564.603","534.379","0"
"GENERATED VIA SPACETRACK.ORG API","18 SPCS","47950","OBJECT U","TBA","U","21022U","2021-06-08 23:05:19","442976","15.05657896","0.0021723","97.5577","62.2663","346.1618","142.3919","0","999","1177","0.000091459","0.00001265","0","3052044","0 OBJECT U","1 47950U 21022U   21159.96203059  .00001265  00000-0  91459-4 0  9990","2 47950  97.5577  62.2663 0021723 346.1618 142.3919 15.05657896 11773","2021-022U","47950","6927.624","95.639","564.538","534.440","0"
